[
    {
        "CCSDS_OMM_VERS": "3.0",
        "COMMENT": "GENERATED VIA SPACE-TRACK.ORG API",
        "CREATION_DATE": "2025-04-14T03:05:54",
        "ORIGINATOR": "18 SPCS",
        "OBJECT_NAME": "GALILEO 22 (2C8)",
        "OBJECT_ID": "2017-079D",
        "CENTER_NAME": "EARTH",
        "REF_FRAME": "TEME",
        "TIME_SYSTEM": "UTC",
        "MEAN_ELEMENT_THEORY": "SGP4",
        "EPOCH": "2025-04-13T04:42:35.722656",
        "MEAN_MOTION": "1.70474827",
        "ECCENTRICITY": "0.00024400",
        "INCLINATION": "55.2167",
        "RA_OF_ASC_NODE": "233.3330",
        "ARG_OF_PERICENTER": "276.1755",
        "MEAN_ANOMALY": "83.7490",
        "EPHEMERIS_TYPE": "0",
        "CLASSIFICATION_TYPE": "U",
        "NORAD_CAT_ID": "43058",
        "ELEMENT_SET_NO": "999",
        "REV_AT_EPOCH": "4568",
        "BSTAR": "0.00000000000000",
        "MEAN_MOTION_DOT": "-0.00000016",
        "MEAN_MOTION_DDOT": "0.0000000000000",
        "SEMIMAJOR_AXIS": "29600.224",
        "PERIOD": "844.699",
        "APOAPSIS": "23229.312",
        "PERIAPSIS": "23214.867",
        "OBJECT_TYPE": "PAYLOAD",
        "RCS_SIZE": "LARGE",
        "COUNTRY_CODE": "ESA",
        "LAUNCH_DATE": "2017-12-12",
        "SITE": "FRGUI",
        "DECAY_DATE": null,
        "FILE": "4701263",
        "GP_ID": "285538334",
        "TLE_LINE0": "0 GALILEO 22 (2C8)",
        "TLE_LINE1": "1 43058U 17079D   25103.19624679 -.00000016  00000-0  00000-0 0  9997",
        "TLE_LINE2": "2 43058  55.2167 233.3330 0002440 276.1755  83.7490  1.70474827 45682"
    }
]